SWARM B                 
1 39451U 13067A   26200.60340539  .00001860  00000+0  65337-4 0  9991
2 39451  87.7465 332.4699 0002213  86.8386 273.3117 15.28733536688193
SWARM A                 
1 39452U 13067B   26200.60353195  .00005792  00000+0  97281-4 0  9995
2 39452  87.3300  44.1856 0003334  92.1285 268.0358 15.51509798711274
SWARM C                 
1 39453U 13067C   26200.60344061  .00005778  00000+0  97054-4 0  9990
2 39453  87.3300  42.7663 0003322  91.7541 268.4101 15.51509136711234
BRITE-CA1 (TORONTO)     
1 40020U 14033L   26200.31108209  .00000524  00000+0  86289-4 0  9998
2 40020  97.9776 328.6539 0078789 173.0970 187.1343 14.72727256646944
OCO 2                   
1 40059U 14035A   26200.56723783  .00000156  00000+0  44624-4 0  9997
2 40059  98.2020 141.3688 0001419  80.8641 279.2718 14.57134028640768
BRITE-PL2 (HEWELIUSZ)   
1 40119U 14049B   26200.57447431  .00000718  00000+0  71560-4 0  9996
2 40119  97.9121 312.8303 0013894   7.9686 352.1752 14.94692881646280
MMS 1                   
1 40482U 15011A   26200.66670139 -.00001266  00000+0  00000+0 0  9998
2 40482  72.4992 348.4119 8303642 168.2021  11.6480  0.28239460  1374
MMS 2                   
1 40483U 15011B   26200.66670139 -.00001267  00000+0  00000+0 0  9990
2 40483  72.5032 348.4108 8306572 168.2013  11.6349  0.28242258  1378
MMS 3                   
1 40484U 15011C   26200.66670139 -.00001266  00000+0  00000+0 0  9990
2 40484  72.5029 348.4227 8304955 168.2092  11.6087  0.28241909  1345
MMS 4                   
1 40485U 15011D   26200.66670139 -.00001266  00000+0  00000+0 0  9991
2 40485  72.4985 348.4062 8304911 168.2191  11.6045  0.28241905  1378
ASTROSAT                
1 40930U 15052A   26200.58399326  .00001073  00000+0  48969-4 0  9994
2 40930   5.9970 282.1653 0007584 140.8251 219.2426 14.82555812584644
DAMPE                   
1 41173U 15078A   26200.59005946  .00000930  00000+0  33780-4 0  9991
2 41173  97.4565 206.2192 0011108 329.4269  30.6323 15.30860785589509
PISAT                   
1 41784U 16059B   26200.49833654  .00000417  00000+0  78635-4 0  9991
2 41784  97.8193 199.5653 0030551 101.6970 258.7667 14.69033802524489
HXMT (HUIYAN)           
1 42758U 17034A   26200.49495742  .00002063  00000+0  10800-3 0  9997
2 42758  43.0152   3.1095 0031738 347.7704  12.2372 15.18709244502572
FLYING LAPTOP           
1 42831U 17042G   26200.64559456  .00002014  00000+0  16035-3 0  9990
2 42831  97.4833 354.9616 0019459  18.4043 341.7881 15.01330532491320
ZHANGHENG 1-01 (CSES-1) 
1 43194U 18015C   26200.64168648  .00003384  00000+0  15703-3 0  9995
2 43194  97.6902   6.9488 0016746 150.1574 210.0620 15.20641483469574
SALSAT                  
1 46495U 20068K   26200.45326485  .00003827  00000+0  13372-3 0  9999
2 46495  97.8865 205.4942 0009671 177.8105 182.3178 15.30206359320291
IXPE                    
1 49954U 21121A   26200.66670139  .00005926  00000+0  29490-3 0  9994
2 49954   0.2302  71.6609 0006724 211.9880  78.1030 15.10510425  5645
SMILE                   
1 69123U 26109A   26194.95939329  .00000936  00000+0  00000+0 0  9996
2 69123  70.0512 206.6048 8313707 286.9544   0.1879  0.47500629    65
