OBJECT_NAME,OBJECT_ID,EPOCH,MEAN_MOTION,ECCENTRICITY,INCLINATION,RA_OF_ASC_NODE,ARG_OF_PERICENTER,MEAN_ANOMALY,EPHEMERIS_TYPE,CLASSIFICATION_TYPE,NORAD_CAT_ID,ELEMENT_SET_NO,REV_AT_EPOCH,BSTAR,MEAN_MOTION_DOT,MEAN_MOTION_DDOT
SWARM B,2013-067A,2026-07-19T14:28:54.225696,15.28733536,.00022131,87.7465,332.4699,86.8386,273.3117,0,U,39451,999,68819,.65336797E-4,.186E-4,0
SWARM A,2013-067B,2026-07-19T14:29:05.160480,15.51509798,.00033348,87.3300,44.1856,92.1285,268.0358,0,U,39452,999,71127,.97280558E-4,.5792E-4,0
SWARM C,2013-067C,2026-07-19T14:28:57.268704,15.51509136,.00033229,87.3300,42.7663,91.7541,268.4101,0,U,39453,999,71123,.97053625E-4,.5778E-4,0
BRITE-CA1 (TORONTO),2014-033L,2026-07-19T07:27:57.492576,14.72727256,.00787895,97.9776,328.6539,173.0970,187.1343,0,U,40020,999,64694,.8628879E-4,.524E-5,0
OCO 2,2014-035A,2026-07-19T13:36:49.348512,14.57134028,.00014195,98.2020,141.3688,80.8641,279.2718,0,U,40059,999,64076,.44624496E-4,.156E-5,0
BRITE-PL2 (HEWELIUSZ),2014-049B,2026-07-19T13:47:14.580384,14.94692881,.00138949,97.9121,312.8303,7.9686,352.1752,0,U,40119,999,64628,.71560275E-4,.718E-5,0
MMS 1,2015-011A,2026-07-19T16:00:03.000096,0.28239460,.83036427,72.4992,348.4119,168.2021,11.6480,0,U,40482,999,137,0,-.1266E-4,0
MMS 2,2015-011B,2026-07-19T16:00:03.000096,0.28242258,.83065729,72.5032,348.4108,168.2013,11.6349,0,U,40483,999,137,0,-.1267E-4,0
MMS 3,2015-011C,2026-07-19T16:00:03.000096,0.28241909,.83049557,72.5029,348.4227,168.2092,11.6087,0,U,40484,999,134,0,-.1266E-4,0
MMS 4,2015-011D,2026-07-19T16:00:03.000096,0.28241905,.83049116,72.4985,348.4062,168.2191,11.6045,0,U,40485,999,137,0,-.1266E-4,0
ASTROSAT,2015-052A,2026-07-19T14:00:57.017664,14.82555812,.00075845,5.9970,282.1653,140.8251,219.2426,0,U,40930,999,58464,.48968782E-4,.1073E-4,0
DAMPE,2015-078A,2026-07-19T14:09:41.137344,15.30860785,.0011108,97.4565,206.2192,329.4269,30.6323,0,U,41173,999,58950,.33780366E-4,.93E-5,0
PISAT,2016-059B,2026-07-19T11:57:36.277056,14.69033802,.00305515,97.8193,199.5653,101.6970,258.7667,0,U,41784,999,52448,.78635164E-4,.417E-5,0
HXMT (HUIYAN),2017-034A,2026-07-19T11:52:44.321088,15.18709244,.00317381,43.0152,3.1095,347.7704,12.2372,0,U,42758,999,50257,.10799575E-3,.2063E-4,0
FLYING LAPTOP,2017-042G,2026-07-19T15:29:39.369984,15.01330532,.00194592,97.4833,354.9616,18.4043,341.7881,0,U,42831,999,49132,.16034694E-3,.2014E-4,0
ZHANGHENG 1-01 (CSES-1),2018-015C,2026-07-19T15:24:01.711872,15.20641483,.00167463,97.6902,6.9488,150.1574,210.0620,0,U,43194,999,46957,.15702779E-3,.3384E-4,0
SALSAT,2020-068K,2026-07-19T10:52:42.083040,15.30206359,.00096718,97.8865,205.4942,177.8105,182.3178,0,U,46495,999,32029,.13371977E-3,.3827E-4,0
IXPE,2021-121A,2026-07-19T16:00:03.000096,15.10510425,.00067246,0.2302,71.6609,211.9880,78.1030,0,U,49954,999,564,.29490011E-3,.5926E-4,0
SMILE,2026-109A,2026-07-13T23:01:31.580256,0.47500629,.83137076,70.0512,206.6048,286.9544,0.1879,0,U,69123,999,6,0,.936E-5,0
